{"type": "FeatureCollection", "features": [{"type": "Feature", "properties": {"norad_id": 25590, "name": "COSMOS 2361", "group": "musson", "lat": 32.07987146760515, "lon": -4.400670855985527, "alt_km": 989.5816696581187, "timestamp": "2025-12-03T04:52:29.906779+00:00", "meta": {"OBJECT_NAME": "COSMOS 2361", "OBJECT_ID": "1998-076A", "EPOCH": "2025-12-02T19:04:05.950848", "MEAN_MOTION": 13.7321583, "ECCENTRICITY": 0.0030169, "INCLINATION": 82.9342, "RA_OF_ASC_NODE": 351.4427, "ARG_OF_PERICENTER": 294.4791, "MEAN_ANOMALY": 238.7655, "EPHEMERIS_TYPE": 0, "CLASSIFICATION_TYPE": "U", "NORAD_CAT_ID": 25590, "ELEMENT_SET_NO": 999, "REV_AT_EPOCH": 34974, "BSTAR": 8.3725e-05, "MEAN_MOTION_DOT": 9.3e-07, "MEAN_MOTION_DDOT": 0}, "tle": {"line1": "1 25590U 98076A   25336.79451332  .00000093  00000+0  83725-4 0  9994", "line2": "2 25590  82.9342 351.4427 0030169 294.4791 238.7655 13.73215830349748"}}, "geometry": {"type": "Point", "coordinates": [-4.400670855985527, 32.07987146760515]}}, {"type": "Feature", "properties": {"norad_id": 26818, "name": "COSMOS 2378", "group": "musson", "lat": 71.5027832582213, "lon": 28.577795723159674, "alt_km": 999.819058302588, "timestamp": "2025-12-03T04:52:29.906800+00:00", "meta": {"OBJECT_NAME": "COSMOS 2378", "OBJECT_ID": "2001-023A", "EPOCH": "2025-12-02T20:37:34.661280", "MEAN_MOTION": 13.74140569, "ECCENTRICITY": 0.0031897, "INCLINATION": 82.928, "RA_OF_ASC_NODE": 7.0513, "ARG_OF_PERICENTER": 233.114, "MEAN_ANOMALY": 300.6428, "EPHEMERIS_TYPE": 0, "CLASSIFICATION_TYPE": "U", "NORAD_CAT_ID": 26818, "ELEMENT_SET_NO": 999, "REV_AT_EPOCH": 22787, "BSTAR": 6.0881e-05, "MEAN_MOTION_DOT": 7.2e-07, "MEAN_MOTION_DDOT": 0}, "tle": {"line1": "1 26818U 01023A   25336.85942895  .00000072  00000+0  60881-4 0  9995", "line2": "2 26818  82.9280   7.0513 0031897 233.1140 300.6428 13.74140569227873"}}, "geometry": {"type": "Point", "coordinates": [28.577795723159674, 71.5027832582213]}}, {"type": "Feature", "properties": {"norad_id": 27436, "name": "COSMOS 2389", "group": "musson", "lat": -64.5620755894971, "lon": 149.12658357332722, "alt_km": 1021.1305486378833, "timestamp": "2025-12-03T04:52:29.906813+00:00", "meta": {"OBJECT_NAME": "COSMOS 2389", "OBJECT_ID": "2002-026A", "EPOCH": "2025-12-02T21:01:02.440416", "MEAN_MOTION": 13.75153046, "ECCENTRICITY": 0.0047787, "INCLINATION": 82.9494, "RA_OF_ASC_NODE": 314.2878, "ARG_OF_PERICENTER": 87.5253, "MEAN_ANOMALY": 337.8185, "EPHEMERIS_TYPE": 0, "CLASSIFICATION_TYPE": "U", "NORAD_CAT_ID": 27436, "ELEMENT_SET_NO": 999, "REV_AT_EPOCH": 18013, "BSTAR": 6.8886e-05, "MEAN_MOTION_DOT": 8.2e-07, "MEAN_MOTION_DDOT": 0}, "tle": {"line1": "1 27436U 02026A   25336.87572269  .00000082  00000+0  68886-4 0  9996", "line2": "2 27436  82.9494 314.2878 0047787  87.5253 337.8185 13.75153046180139"}}, "geometry": {"type": "Point", "coordinates": [149.12658357332722, -64.5620755894971]}}, {"type": "Feature", "properties": {"norad_id": 27818, "name": "COSMOS 2398", "group": "musson", "lat": -66.04099494416916, "lon": -96.44865459980805, "alt_km": 1019.8747961277377, "timestamp": "2025-12-03T04:52:29.906825+00:00", "meta": {"OBJECT_NAME": "COSMOS 2398", "OBJECT_ID": "2003-023A", "EPOCH": "2025-12-02T20:42:48.434976", "MEAN_MOTION": 13.72384231, "ECCENTRICITY": 0.0032201, "INCLINATION": 82.9475, "RA_OF_ASC_NODE": 279.977, "ARG_OF_PERICENTER": 138.3134, "MEAN_ANOMALY": 275.3716, "EPHEMERIS_TYPE": 0, "CLASSIFICATION_TYPE": "U", "NORAD_CAT_ID": 27818, "ELEMENT_SET_NO": 999, "REV_AT_EPOCH": 12681, "BSTAR": 4.227e-05, "MEAN_MOTION_DOT": 5.4e-07, "MEAN_MOTION_DDOT": 0}, "tle": {"line1": "1 27818U 03023A   25336.86306059  .00000054  00000+0  42270-4 0  9997", "line2": "2 27818  82.9475 279.9770 0032201 138.3134 275.3716 13.72384231126818"}}, "geometry": {"type": "Point", "coordinates": [-96.44865459980805, -66.04099494416916]}}, {"type": "Feature", "properties": {"norad_id": 28380, "name": "COSMOS 2407", "group": "musson", "lat": -6.614499870177376, "lon": -140.86795982968434, "alt_km": 979.1517883549932, "timestamp": "2025-12-03T04:52:29.906836+00:00", "meta": {"OBJECT_NAME": "COSMOS 2407", "OBJECT_ID": "2004-028A", "EPOCH": "2025-12-02T18:46:01.833024", "MEAN_MOTION": 13.76311972, "ECCENTRICITY": 0.0040534, "INCLINATION": 82.9614, "RA_OF_ASC_NODE": 220.2647, "ARG_OF_PERICENTER": 81.8447, "MEAN_ANOMALY": 346.5259, "EPHEMERIS_TYPE": 0, "CLASSIFICATION_TYPE": "U", "NORAD_CAT_ID": 28380, "ELEMENT_SET_NO": 999, "REV_AT_EPOCH": 7286, "BSTAR": 9.0821e-05, "MEAN_MOTION_DOT": 1.05e-06, "MEAN_MOTION_DDOT": 0}, "tle": {"line1": "1 28380U 04028A   25336.78196566  .00000105  00000+0  90821-4 0  9991", "line2": "2 28380  82.9614 220.2647 0040534  81.8447 346.5259 13.76311972 72861"}}, "geometry": {"type": "Point", "coordinates": [-140.86795982968434, -6.614499870177376]}}, {"type": "Feature", "properties": {"norad_id": 28521, "name": "COSMOS 2414", "group": "musson", "lat": -40.10492133819419, "lon": 17.85322879205613, "alt_km": 925.046075238045, "timestamp": "2025-12-03T04:52:29.906846+00:00", "meta": {"OBJECT_NAME": "COSMOS 2414", "OBJECT_ID": "2005-002A", "EPOCH": "2025-12-02T20:53:51.937728", "MEAN_MOTION": 13.87900867, "ECCENTRICITY": 0.0040287, "INCLINATION": 82.9499, "RA_OF_ASC_NODE": 192.1221, "ARG_OF_PERICENTER": 167.4249, "MEAN_ANOMALY": 192.793, "EPHEMERIS_TYPE": 0, "CLASSIFICATION_TYPE": "U", "NORAD_CAT_ID": 28521, "ELEMENT_SET_NO": 999, "REV_AT_EPOCH": 5658, "BSTAR": 8.0555e-05, "MEAN_MOTION_DOT": 1.12e-06, "MEAN_MOTION_DDOT": 0}, "tle": {"line1": "1 28521U 05002A   25336.87074002  .00000112  00000+0  80555-4 0  9992", "line2": "2 28521  82.9499 192.1221 0040287 167.4249 192.7930 13.87900867 56587"}}, "geometry": {"type": "Point", "coordinates": [17.85322879205613, -40.10492133819419]}}, {"type": "Feature", "properties": {"norad_id": 32052, "name": "COSMOS 2429", "group": "musson", "lat": 70.09126421544417, "lon": 10.228224021002022, "alt_km": 945.4410363332781, "timestamp": "2025-12-03T04:52:29.906857+00:00", "meta": {"OBJECT_NAME": "COSMOS 2429", "OBJECT_ID": "2007-038A", "EPOCH": "2025-12-02T18:03:15.022080", "MEAN_MOTION": 13.75147947, "ECCENTRICITY": 0.003965, "INCLINATION": 82.9805, "RA_OF_ASC_NODE": 350.6721, "ARG_OF_PERICENTER": 65.0194, "MEAN_ANOMALY": 295.5073, "EPHEMERIS_TYPE": 0, "CLASSIFICATION_TYPE": "U", "NORAD_CAT_ID": 32052, "ELEMENT_SET_NO": 999, "REV_AT_EPOCH": 91465, "BSTAR": 7.647e-05, "MEAN_MOTION_DOT": 8.9e-07, "MEAN_MOTION_DDOT": 0}, "tle": {"line1": "1 32052U 07038A   25336.75225720  .00000089  00000+0  76470-4 0  9993", "line2": "2 32052  82.9805 350.6721 0039650  65.0194 295.5073 13.75147947914652"}}, "geometry": {"type": "Point", "coordinates": [10.228224021002022, 70.09126421544417]}}, {"type": "Feature", "properties": {"norad_id": 35635, "name": "COSMOS 2454", "group": "musson", "lat": -20.93482443166711, "lon": -1.4148510654186153, "alt_km": 937.1389505477273, "timestamp": "2025-12-03T04:52:29.906867+00:00", "meta": {"OBJECT_NAME": "COSMOS 2454", "OBJECT_ID": "2009-039A", "EPOCH": "2025-12-02T19:19:53.237856", "MEAN_MOTION": 13.89926641, "ECCENTRICITY": 0.0020476, "INCLINATION": 82.9557, "RA_OF_ASC_NODE": 176.1754, "ARG_OF_PERICENTER": 100.2872, "MEAN_ANOMALY": 271.8916, "EPHEMERIS_TYPE": 0, "CLASSIFICATION_TYPE": "U", "NORAD_CAT_ID": 35635, "ELEMENT_SET_NO": 999, "REV_AT_EPOCH": 83012, "BSTAR": 7.1193e-05, "MEAN_MOTION_DOT": 1.04e-06, "MEAN_MOTION_DDOT": 0}, "tle": {"line1": "1 35635U 09039A   25336.80547729  .00000104  00000+0  71193-4 0  9993", "line2": "2 35635  82.9557 176.1754 0020476 100.2872 271.8916 13.89926641830127"}}, "geometry": {"type": "Point", "coordinates": [-1.4148510654186153, -20.93482443166711]}}, {"type": "Feature", "properties": {"norad_id": 36519, "name": "COSMOS 2463", "group": "musson", "lat": 31.99151205630573, "lon": -150.7052648362285, "alt_km": 1017.0656349766059, "timestamp": "2025-12-03T04:52:29.906878+00:00", "meta": {"OBJECT_NAME": "COSMOS 2463", "OBJECT_ID": "2010-017A", "EPOCH": "2025-12-02T16:27:27.586080", "MEAN_MOTION": 13.71647766, "ECCENTRICITY": 0.0035125, "INCLINATION": 82.9622, "RA_OF_ASC_NODE": 34.1003, "ARG_OF_PERICENTER": 316.8812, "MEAN_ANOMALY": 157.4571, "EPHEMERIS_TYPE": 0, "CLASSIFICATION_TYPE": "U", "NORAD_CAT_ID": 36519, "ELEMENT_SET_NO": 999, "REV_AT_EPOCH": 78099, "BSTAR": 7.41e-05, "MEAN_MOTION_DOT": 8.2e-07, "MEAN_MOTION_DDOT": 0}, "tle": {"line1": "1 36519U 10017A   25336.68573595  .00000082  00000+0  74100-4 0  9995", "line2": "2 36519  82.9622  34.1003 0035125 316.8812 157.4571 13.71647766780992"}}, "geometry": {"type": "Point", "coordinates": [-150.7052648362285, 31.99151205630573]}}]}